E-ST@R-II               
1 41459U 16025D   22278.42511613  .00018699  00000+0  77065-3 0  9991
2 41459  98.1935  91.9697 0138683 255.4910 103.0998 15.15688131354142
AAUSAT 4                
1 41460U 16025E   22278.45816197  .00037100  00000+0  12962-2 0  9993
2 41460  98.1861  99.3108 0116136 227.2760 131.8865 15.23197533354669
BEESAT-4                
1 41619U 16040W   22278.07844071  .00031967  00000+0  96944-3 0  9994
2 41619  97.2054 325.9063 0010396  87.0905 273.1528 15.34005602337519
RAVAN                   
1 41849U 16067B   22278.37253984  .00006951  00000+0  54318-3 0  9992
2 41849  98.0085  58.6571 0014109 330.9648  29.0789 15.01353380322481
CELTEE 1                
1 41850U 16067C   22278.34697091  .00004269  00000+0  35820-3 0  9999
2 41850  98.0146  53.2499 0008409 343.6377  16.4572 14.98894872322219
OPTICUBE 04             
1 41851U 16067D   22277.37993775  .00003297  00000+0  28403-3 0  9999
2 41851  98.0105  51.1600 0007855 345.8590  14.2410 14.98051080322012
AEROCUBE 8D             
1 41852U 16067E   22278.34231651  .00004992  00000+0  41842-3 0  9991
2 41852  98.0120  52.2520 0009152 346.0710  14.0258 14.98850944322151
AEROCUBE 8C             
1 41853U 16067F   22278.32566980  .00006266  00000+0  52429-3 0  9995
2 41853  98.0097  52.0420 0008545 348.4372  11.6652 14.98812631322148
PROMETHEUS 2-1          
1 41854U 16067G   22278.33433563  .00009530  00000+0  76325-3 0  9995
2 41854  98.0150  53.3454 0015743 346.5021  13.5778 15.00284885322214
PROMETHEUS 2-3          
1 41855U 16067H   22278.32548516  .00009432  00000+0  75580-3 0  9993
2 41855  98.0094  53.4145 0014553   6.7058 353.4357 15.00282134322217
INS-1B                  
1 41954U 17008G   22278.12080261  .00028834  00000+0  87118-3 0  9992
2 41954  97.2460 335.8509 0006884 189.9334 170.1774 15.34175301313542
BGUSAT                  
1 41999U 17008BD  22278.19965890  .00080194  00000+0  15219-2 0  9997
2 41999  97.2703 348.6312 0005352 172.6249 187.5081 15.48006295313574
DIDO-2                  
1 42000U 17008BE  22278.09456096  .00015534  00000+0  53649-3 0  9999
2 42000  97.2453 334.6469 0006227 216.4583 143.6234 15.30009391312829
PEASSS                  
1 42015U 17008BV  22277.42895726  .00025802  00000+0  78650-3 0  9996
2 42015  97.2518 338.4650 0004386 205.6408 154.4618 15.33930445313464
AL-FARABI 1             
1 42016U 17008BW  22278.12547173  .00037188  00000+0  99723-3 0  9999
2 42016  97.2585 342.7915 0004050 194.1334 165.9798 15.37874692313886
NAYIF-1 (EO-88)         
1 42017U 17008BX  22277.15339168  .00037516  00000+0  10022-2 0  9994
2 42017  97.2575 341.8568 0004247 197.3073 162.8028 15.37990265313767
UCLSAT                  
1 42765U 17036A   22278.07188616  .00024857  00000+0  80080-3 0  9993
2 42765  97.1872 317.4043 0006969 296.2059  63.8466 15.32157263294031
LITUANICASAT-2          
1 42768U 17036D   22277.11986911  .00059961  00000+0  14429-2 0  9991
2 42768  97.1946 320.4391 0007357 269.4583  90.5822 15.41056645293957
AALTO-1                 
1 42775U 17036L   22277.85738250  .00013616  00000+0  51555-3 0  9990
2 42775  97.1888 311.5459 0010367 302.9673  57.0569 15.26982622293462
URSA MAIOR              
1 42776U 17036M   22278.38319641  .00015492  00000+0  57365-3 0  9998
2 42776  97.1897 312.9002 0009990 299.0582  60.9657 15.27696746293581
COMPASS 2               
1 42777U 17036N   22278.39307869  .00038745  00000+0  10931-2 0  9992
2 42777  97.1940 320.4271 0007013 274.2581  85.7862 15.36270413294001
DIAMOND RED             
1 42783U 17036U   22278.05987392  .00016929  00000+0  59942-3 0  9993
2 42783  97.1902 315.1395 0008391 305.4955  54.5502 15.29162249293683
PEGASUS                 
1 42784U 17036V   22278.39046164  .00022762  00000+0  75796-3 0  9991
2 42784  97.1893 316.8504 0007822 299.1638  60.8821 15.31103104293826
DIAMOND GREEN           
1 42785U 17036W   22278.06058187  .00018086  00000+0  64003-3 0  9997
2 42785  97.1904 315.2038 0008161 306.9851  53.0642 15.29169110293670
DIAMOND BLUE            
1 42786U 17036X   22277.60163461  .00019084  00000+0  67553-3 0  9991
2 42786  97.1904 314.7522 0008290 309.6038  50.4470 15.29147032293683
NUDTSAT                 
1 42787U 17036Y   22278.04469319  .00032575  00000+0  88028-3 0  9992
2 42787  97.1909 321.5475 0005978 280.7765  79.2821 15.37654516293912
SUCHAI                  
1 42788U 17036Z   22277.85132435  .00027845  00000+0  86271-3 0  9999
2 42788  97.1895 318.2894 0006888 293.3691  66.6827 15.33383416293936
SKCUBE                  
1 42789U 17036AA  22277.84498917  .00024574  00000+0  78704-3 0  9997
2 42789  97.1896 317.6081 0007077 295.7156  64.3355 15.32346578293817
VZLUSAT-1               
1 42790U 17036AB  22277.87008273  .00038448  00000+0  10457-2 0  9999
2 42790  97.1912 321.3166 0005694 280.1810  79.8793 15.37421431294031
ROBUSTA 1B              
1 42792U 17036AD  22278.08415562  .00028644  00000+0  89550-3 0  9996
2 42792  97.1893 318.4969 0006626 293.9537  66.1011 15.33091943293907
CICERO 6                
1 42793U 17036AE  22278.28698982  .00015665  00000+0  55863-3 0  9997
2 42793  97.1879 315.8561 0006972 305.5953  54.4638 15.28955752293846
CORVUS BC2              
1 42846U 17042X   22278.06155297  .00003267  00000+0  31794-3 0  9998
2 42846  97.4093 129.1142 0009247 359.5957   0.5254 14.93148092284633
CORVUS BC1              
1 42847U 17042Y   22277.53162956  .00003243  00000+0  31496-3 0  9993
2 42847  97.4095 128.9389 0008984   0.7405 359.3828 14.93238036284568
MIRATA                  
1 43015U 17073C   22277.60865430  .00012236  00000+0  86849-3 0  9994
2 43015  97.6588 168.8789 0234178 181.4653 178.5906 14.85323161263469
MAKERSAT 0              
1 43016U 17073D   22278.18144639  .00008842  00000+0  64607-3 0  9996
2 43016  97.6598 168.7300 0242233 184.9216 174.9616 14.83247938263444
CORVUS BC3              
1 43118U 18004H   22278.19079251  .00014883  00000+0  53341-3 0  9997
2 43118  97.3535 349.5256 0008173 343.6920  16.4056 15.28799165262972
MICROMAS-2A             
1 43131U 18004W   22277.49347768  .00056013  00000+0  13417-2 0  9995
2 43131  97.3675 357.3319 0004756 321.2381  38.8524 15.41230582263343
SPACEBEE-4              
1 43139U 18004AE  22278.22193130  .00162695  00000+0  22275-2 0  9993
2 43139  97.3767   4.9384 0004307 290.9085  69.1709 15.56831819263837
CICERO 7                
1 43143U 18004AJ  22278.17571464  .00034649  00000+0  96468-3 0  9995
2 43143  97.3662 356.9495 0004381 338.8534  21.2528 15.36723662263407
GOMX-4B                 
1 43196U 18015E   22278.13469588  .00013341  00000+0  48362-3 0  9990
2 43196  97.5484  58.7253 0017442  34.1828 326.0530 15.28342588259906
GOMX-4A                 
1 43197U 18015F   22278.56805462  .00012292  00000+0  42057-3 0  9992
2 43197  97.5482  60.2705 0016681  31.5405  30.7939 15.30263780260050
AEROCUBE 12A            
1 43556U 18046C   22277.50957168  .00043183  00000+0  95378-3 0  9996
2 43556  51.6374  10.7559 0006857  61.4094 298.7581 15.43403705236135
AEROCUBE 12B            
1 43557U 18046D   22278.26162611  .00032295  00000+0  78881-3 0  9994
2 43557  51.6388  13.4418 0007086  63.2898 296.8811 15.40519470236119
SURFSAT                 
1 43614U 18070B   22278.19980800  .00094368  00000+0  97683-3 0  9995
2 43614  93.0149 145.5522 0005476 314.9966  45.0858 15.64401591228165
CP7 (DAVE)              
1 43615U 18070C   22278.07228210  .00081576  00000+0  92953-3 0  9995
2 43615  93.0137 145.2160 0006393 320.8414  39.2389 15.61967862228092
CUBEBEL-1 (BSUSAT-1)    
1 43666U 18083E   22278.44055188  .00013737  00000+0  55184-3 0  9997
2 43666  97.4151 305.9659 0010825 311.3106 170.3101 15.25009899218239
CICERO 10               
1 43690U 18088A   22277.64940340  .00017501  00000+0  66945-3 0  9993
2 43690  85.0341 243.7647 0016178 101.9519 258.3540 15.26337666216402
IRVINE01                
1 43693U 18088D   22278.31537657  .00115264  00000+0  23047-2 0  9994
2 43693  85.0251 235.9366 0014401  73.1012 287.1821 15.46257382217143
PROXIMA I               
1 43694U 18088E   22278.34263854  .00019426  00000+0  70390-3 0  9990
2 43694  85.0279 239.7172 0019329  71.2656 289.0685 15.28070600216737
PROXIMA II              
1 43696U 18088G   22278.34461630  .00019038  00000+0  69050-3 0  9994
2 43696  85.0282 239.7392 0019393  71.2413 289.0935 15.28038258216730
FACSAT-1                
1 43721U 18096C   22278.38698182  .00036231  00000+0  89350-3 0  9999
2 43721  97.3437 358.3351 0012005  22.9893  40.3364 15.40386093214872
CENTAURI-2              
1 43722U 18096D   22278.22415968  .00064037  00000+0  13327-2 0  9997
2 43722  97.3491   0.8759 0010965  15.1572 345.0003 15.45337603214991
INNOSAT-2               
1 43738U 18096V   22277.52111176  .00197287  00000+0  21209-2 0  9992
2 43738  97.3591   9.4855 0009053 348.9219 142.4171 15.63064620215455
SIRION PATHFINDER-2     
1 43759U 18099B   22278.22993911  .00003141  00000+0  27973-3 0  9991
2 43759  97.6097 342.0892 0012662 251.8384 108.1459 14.96688915209460
CORVUS BC4              
1 43767U 18099K   22278.42883102  .00003408  00000+0  30782-3 0  9990
2 43767  97.6051 340.6285 0010220 257.3725 102.6354 14.96098943209411
MOVE-II                 
1 43780U 18099Y   22278.42501516  .00007861  00000+0  66037-3 0  9990
2 43780  97.6153 343.3058 0011335 261.7273  98.2665 14.98529612209523
SPACEBEE-7              
1 43816U 18099BL  22278.15619779  .00006778  00000+0  57369-3 0  9995
2 43816  97.6178 343.7692 0011195 243.4857 116.5218 14.98287802209077
SPACEBEE-5              
1 43817U 18099BM  22278.45874616  .00021177  00000+0  15766-2 0  9996
2 43817  97.6269 347.7247 0004411 221.6371 138.4518 15.02946945209286
SPACEBEE-6              
1 43818U 18099BN  22278.16196593  .00010322  00000+0  84160-3 0  9991
2 43818  97.6225 344.8957 0011115 246.3982 113.6075 14.99605675209275
